STARLINK-38055          
1 69704U 26147A   26182.16670139 -.02831231  24476-2 -49945-2 0  9998
2 69704  97.2831 217.6632 0001819  42.3315  70.6047 16.02139866  1492
STARLINK-37898          
1 69705U 26147B   26182.16670139 -.02745765  22979-2 -48276-2 0  9997
2 69705  97.2830 217.6634 0001652  41.8155  71.5804 16.02205491  1494
STARLINK-37970          
1 69706U 26147C   26182.16670139 -.02726518  22687-2 -47594-2 0  9991
2 69706  97.2829 217.6638 0001499  38.0116  75.8408 16.02330201  1496
STARLINK-37975          
1 69707U 26147D   26182.16670139 -.02594710  20508-2 -45109-2 0  9999
2 69707  97.2830 217.6639 0001447  17.6596  96.6485 16.02407588  1497
STARLINK-37972          
1 69708U 26147E   26182.16670139 -.02581484  20336-2 -44514-2 0  9992
2 69708  97.2830 217.6641 0001329   9.8978 104.8622 16.02547943  1492
STARLINK-37963          
1 69709U 26147F   26182.16670139 -.02639430  21332-2 -45073-2 0  9996
2 69709  97.2828 217.6641 0001630  29.6708  85.5410 16.02710120  1495
STARLINK-37969          
1 69710U 26147G   26182.16670139 -.02586583  20500-2 -43867-2 0  9993
2 69710  97.2828 217.6646 0001385  18.0005  97.6636 16.02830590  1646
STARLINK-37956          
1 69711U 26147H   26182.16670139 -.02548956  19915-2 -43067-2 0  9996
2 69711  97.2829 217.6648 0001378  20.8589  95.2530 16.02895947  1497
STARLINK-38043          
1 69712U 26147J   26182.16670139 -.02292402  16097-2 -38737-2 0  9995
2 69712  97.2827 217.6647 0001567  72.6400  43.9583 16.02893844  1494
STARLINK-38020          
1 69713U 26147K   26182.16670139 -.02252768  15579-2 -37777-2 0  9994
2 69713  97.2827 217.6650 0001318  72.9185  44.1258 16.03023892  1497
STARLINK-38059          
1 69714U 26147L   26182.16670139 -.02202574  14924-2 -36720-2 0  9995
2 69714  97.2827 217.6652 0001196  76.5225  40.9565 16.03121329  1498
STARLINK-38061          
1 69715U 26147M   26182.16670139 -.02179042  14635-2 -36085-2 0  9992
2 69715  97.2827 217.6653 0000986  80.2999  37.6291 16.03234497  1586
STARLINK-38060          
1 69716U 26147N   26182.16670139 -.02158174  14382-2 -35522-2 0  9990
2 69716  97.2827 217.6655 0000840  84.8197  33.5559 16.03337186  1589
STARLINK-38040          
1 69717U 26147P   26182.16670139 -.02137818  14135-2 -35004-2 0  9994
2 69717  97.2825 217.6657 0000803  91.0262  27.7978 16.03424389  1584
STARLINK-37989          
1 69718U 26147Q   26182.16670139 -.02506746  19483-2 -40280-2 0  9998
2 69718  97.2825 217.6657 0002078  74.2209  45.0352 16.03742846  1585
STARLINK-38039          
1 69719U 26147R   26182.16670139 -.02454676  18694-2 -39248-2 0  9998
2 69719  97.2824 217.6659 0001851  72.3126  47.3948 16.03828352  1585
STARLINK-38003          
1 69720U 26147S   26182.16670139 -.02447304  18621-2 -38781-2 0  9991
2 69720  97.2823 217.6661 0001364  73.2110  46.9519 16.03980606  1581
STARLINK-38014          
1 69721U 26147T   26182.16670139 -.02383257  17667-2 -37642-2 0  9992
2 69721  97.2823 217.6662 0001368  69.2060  51.4040 16.04036186  1582
STARLINK-37915          
1 69722U 26147U   26182.16670139 -.02308303  16599-2 -36224-2 0  9990
2 69722  97.2824 217.6664 0000858  46.0733  74.9969 16.04144878  1587
STARLINK-38007          
1 69723U 26147V   26182.16670139 -.02436939  18549-2 -37870-2 0  9993
2 69723  97.2824 217.6666 0000208 227.6412 253.8685 16.04308968  1585
STARLINK-38008          
1 69724U 26147W   26182.16670139 -.02326363  16903-2 -36095-2 0  9993
2 69724  97.2824 217.6669 0000225 354.2774 127.6812 16.04335771  1588
STARLINK-38021          
1 69725U 26147X   26182.16670139 -.02311493  16721-2 -35565-2 0  9991
2 69725  97.2823 217.6672 0000635 266.4351 216.2237 16.04475033  1584
STARLINK-38015          
1 69726U 26147Y   26182.16670139 -.02060329  13367-2 -31382-2 0  9997
2 69726  97.2825 217.6675 0000624 283.5054 199.5791 16.04633958  1588
STARLINK-38010          
1 69727U 26147Z   26182.16670139 -.02243942  15836-2 -33853-2 0  9990
2 69727  97.2824 217.6678 0000788  63.1088  60.4147 16.04800765  1584
SXM-11                  
1 69728U 26148A   26181.20621446  .00004494  00000+0  24372-3 0  9997
2 69728  26.9898 145.6743 5951743 175.4619 194.4436  4.17314436    52
