OBJECT_NAME,OBJECT_ID,EPOCH,MEAN_MOTION,ECCENTRICITY,INCLINATION,RA_OF_ASC_NODE,ARG_OF_PERICENTER,MEAN_ANOMALY,EPHEMERIS_TYPE,CLASSIFICATION_TYPE,NORAD_CAT_ID,ELEMENT_SET_NO,REV_AT_EPOCH,BSTAR,MEAN_MOTION_DOT,MEAN_MOTION_DDOT
STARLINK-38055,2026-147A,2026-07-01T04:00:03.000096,16.02139866,.0001819,97.2831,217.6632,42.3315,70.6047,0,U,69704,999,149,-.49945E-2,-.2831231E-1,.24476E-2
STARLINK-37898,2026-147B,2026-07-01T04:00:03.000096,16.02205491,.0001652,97.2830,217.6634,41.8155,71.5804,0,U,69705,999,149,-.48276E-2,-.2745765E-1,.22979E-2
STARLINK-37970,2026-147C,2026-07-01T04:00:03.000096,16.02330201,.0001499,97.2829,217.6638,38.0116,75.8408,0,U,69706,999,149,-.47594E-2,-.2726518E-1,.22687E-2
STARLINK-37975,2026-147D,2026-07-01T04:00:03.000096,16.02407588,.0001447,97.2830,217.6639,17.6596,96.6485,0,U,69707,999,149,-.45109E-2,-.259471E-1,.20508E-2
STARLINK-37972,2026-147E,2026-07-01T04:00:03.000096,16.02547943,.0001329,97.2830,217.6641,9.8978,104.8622,0,U,69708,999,149,-.44514E-2,-.2581484E-1,.20336E-2
STARLINK-37963,2026-147F,2026-07-01T04:00:03.000096,16.02710120,.000163,97.2828,217.6641,29.6708,85.5410,0,U,69709,999,149,-.45073E-2,-.263943E-1,.21332E-2
STARLINK-37969,2026-147G,2026-07-01T04:00:03.000096,16.02830590,.0001385,97.2828,217.6646,18.0005,97.6636,0,U,69710,999,164,-.43867E-2,-.2586583E-1,.205E-2
STARLINK-37956,2026-147H,2026-07-01T04:00:03.000096,16.02895947,.0001378,97.2829,217.6648,20.8589,95.2530,0,U,69711,999,149,-.43067E-2,-.2548956E-1,.19915E-2
STARLINK-38043,2026-147J,2026-07-01T04:00:03.000096,16.02893844,.0001567,97.2827,217.6647,72.6400,43.9583,0,U,69712,999,149,-.38737E-2,-.2292402E-1,.16097E-2
STARLINK-38020,2026-147K,2026-07-01T04:00:03.000096,16.03023892,.0001318,97.2827,217.6650,72.9185,44.1258,0,U,69713,999,149,-.37777E-2,-.2252768E-1,.15579E-2
STARLINK-38059,2026-147L,2026-07-01T04:00:03.000096,16.03121329,.0001196,97.2827,217.6652,76.5225,40.9565,0,U,69714,999,149,-.3672E-2,-.2202574E-1,.14924E-2
STARLINK-38061,2026-147M,2026-07-01T04:00:03.000096,16.03234497,.0000986,97.2827,217.6653,80.2999,37.6291,0,U,69715,999,158,-.36085E-2,-.2179042E-1,.14635E-2
STARLINK-38060,2026-147N,2026-07-01T04:00:03.000096,16.03337186,.000084,97.2827,217.6655,84.8197,33.5559,0,U,69716,999,158,-.35522E-2,-.2158174E-1,.14382E-2
STARLINK-38040,2026-147P,2026-07-01T04:00:03.000096,16.03424389,.0000803,97.2825,217.6657,91.0262,27.7978,0,U,69717,999,158,-.35004E-2,-.2137818E-1,.14135E-2
STARLINK-37989,2026-147Q,2026-07-01T04:00:03.000096,16.03742846,.0002078,97.2825,217.6657,74.2209,45.0352,0,U,69718,999,158,-.4028E-2,-.2506746E-1,.19483E-2
STARLINK-38039,2026-147R,2026-07-01T04:00:03.000096,16.03828352,.0001851,97.2824,217.6659,72.3126,47.3948,0,U,69719,999,158,-.39248E-2,-.2454676E-1,.18694E-2
STARLINK-38003,2026-147S,2026-07-01T04:00:03.000096,16.03980606,.0001364,97.2823,217.6661,73.2110,46.9519,0,U,69720,999,158,-.38781E-2,-.2447304E-1,.18621E-2
STARLINK-38014,2026-147T,2026-07-01T04:00:03.000096,16.04036186,.0001368,97.2823,217.6662,69.2060,51.4040,0,U,69721,999,158,-.37642E-2,-.2383257E-1,.17667E-2
STARLINK-37915,2026-147U,2026-07-01T04:00:03.000096,16.04144878,.0000858,97.2824,217.6664,46.0733,74.9969,0,U,69722,999,158,-.36224E-2,-.2308303E-1,.16599E-2
STARLINK-38007,2026-147V,2026-07-01T04:00:03.000096,16.04308968,.0000208,97.2824,217.6666,227.6412,253.8685,0,U,69723,999,158,-.3787E-2,-.2436939E-1,.18549E-2
STARLINK-38008,2026-147W,2026-07-01T04:00:03.000096,16.04335771,.0000225,97.2824,217.6669,354.2774,127.6812,0,U,69724,999,158,-.36095E-2,-.2326363E-1,.16903E-2
STARLINK-38021,2026-147X,2026-07-01T04:00:03.000096,16.04475033,.0000635,97.2823,217.6672,266.4351,216.2237,0,U,69725,999,158,-.35565E-2,-.2311493E-1,.16721E-2
STARLINK-38015,2026-147Y,2026-07-01T04:00:03.000096,16.04633958,.0000624,97.2825,217.6675,283.5054,199.5791,0,U,69726,999,158,-.31382E-2,-.2060329E-1,.13367E-2
STARLINK-38010,2026-147Z,2026-07-01T04:00:03.000096,16.04800765,.0000788,97.2824,217.6678,63.1088,60.4147,0,U,69727,999,158,-.33853E-2,-.2243942E-1,.15836E-2
SXM-11,2026-148A,2026-06-30T04:56:56.929344,4.17314436,.59517433,26.9898,145.6743,175.4619,194.4436,0,U,69728,999,5,.24372355E-3,.4494E-4,0
